[{"OBJECT_NAME":"SINOD-D 3","OBJECT_ID":"2015-058P","EPOCH":"2026-03-09T19:29:37.516128","MEAN_MOTION":14.93212807,"ECCENTRICITY":0.01185207,"INCLINATION":64.7724,"RA_OF_ASC_NODE":225.9436,"ARG_OF_PERICENTER":98.0775,"MEAN_ANOMALY":263.3804,"EPHEMERIS_TYPE":0,"CLASSIFICATION_TYPE":"U","NORAD_CAT_ID":40977,"ELEMENT_SET_NO":999,"REV_AT_EPOCH":9991,"BSTAR":0.0005253062,"MEAN_MOTION_DOT":6.149e-5,"MEAN_MOTION_DDOT":0},{"OBJECT_NAME":"STARLINK-5511","OBJECT_ID":"2023-094AL","EPOCH":"2026-03-09T22:00:01.999584","MEAN_MOTION":15.05534015,"ECCENTRICITY":0.000199,"INCLINATION":43.0016,"RA_OF_ASC_NODE":16.078,"ARG_OF_PERICENTER":266.7352,"MEAN_ANOMALY":114.3628,"EPHEMERIS_TYPE":0,"CLASSIFICATION_TYPE":"U","NORAD_CAT_ID":57252,"ELEMENT_SET_NO":999,"REV_AT_EPOCH":573,"BSTAR":0.0021219726,"MEAN_MOTION_DOT":0.00030984,"MEAN_MOTION_DDOT":0}]
